OBJECT_NAME,OBJECT_ID,EPOCH,MEAN_MOTION,ECCENTRICITY,INCLINATION,RA_OF_ASC_NODE,ARG_OF_PERICENTER,MEAN_ANOMALY,EPHEMERIS_TYPE,CLASSIFICATION_TYPE,NORAD_CAT_ID,ELEMENT_SET_NO,REV_AT_EPOCH,BSTAR,MEAN_MOTION_DOT,MEAN_MOTION_DDOT
EYESAT A (AO-27),1993-061C,2026-07-20T03:26:52.994688,14.30949875,.00084736,98.6863,268.5424,11.8665,348.2716,0,U,22825,999,71171,.26829694E-4,.26E-6,0
ITAMSAT (IO-26),1993-061D,2026-07-20T02:43:04.202112,14.31377545,.00086606,98.6812,268.4329,354.6993,5.4097,0,U,22826,999,71202,.23786104E-4,.18E-6,0
RADIO ROSTO (RS15),1994-085A,2026-07-20T02:35:58.898976,11.27583634,.01571058,64.8145,249.9747,357.8021,2.2196,0,U,23439,999,29961,-.25356455E-3,-.51E-6,0
JAS-2 (FO-29),1996-046B,2026-07-20T03:17:36.483648,13.53275824,.03501233,98.5218,45.4924,11.1325,349.7313,0,U,24278,999,47762,-.1321587E-4,-.49E-6,0
FORTE,1997-047A,2026-07-20T00:25:42.687552,14.27956603,.00242283,69.9544,299.8642,237.5036,122.3745,0,U,24920,999,50337,.44674417E-4,.53E-6,0
TECHSAT 1B (GO-32),1998-043D,2026-07-20T05:15:22.879584,14.24433954,.0002305,99.0089,194.8138,107.1478,252.9953,0,U,25397,999,45603,.26363981E-4,.14E-6,0
ISS (ZARYA),1998-067A,2026-07-20T02:07:54.205248,15.49056873,.00068137,51.6315,137.2714,316.7062,43.3390,0,U,25544,999,57685,.9099994E-4,.4577E-4,0
IMAGE,2000-017A,2026-07-10T09:33:22.635360,1.68666826,.74160542,94.2468,315.6762,285.1805,9.7435,0,U,26113,999,16189,0,-.42E-6,0
CLUSTER II-FM7 (SAMBA),2000-041A,2026-07-20T14:26:37.417344,0.44850593,.90917143,149.8020,56.9135,274.4939,359.4480,0,U,26410,999,2046,0,.10308E-3,-.3041523E-5
CLUSTER II-FM8 (TANGO),2000-045B,2026-07-18T22:53:06.823680,0.44421506,.90953904,150.0065,57.8200,275.2268,2.0610,0,U,26464,999,2045,0,.14903E-3,-.8973583E-5
ODIN,2001-007A,2026-07-20T02:04:35.434272,15.92415357,.00051244,97.3670,244.4948,155.1636,204.9886,0,U,26702,999,39460,.97863626E-3,.328733E-2,.43055449E-4
OMNI-M1,2001-026A,2026-07-15T12:15:20.524608,3.92402085,.00135289,44.8240,238.7352,57.8922,302.2996,0,U,26857,999,20668,0,.4E-7,0
PCSAT (NO-44),2001-043C,2026-07-20T03:01:44.858496,14.31966145,.00058686,67.0499,159.0756,266.9359,93.1071,0,U,26931,999,29516,.45494891E-4,.39E-6,0
PROBA-1,2001-049B,2026-07-20T06:10:00.084288,15.07622811,.00551803,97.9603,210.9475,12.7843,347.4769,0,U,26958,999,34860,.33643033E-4,.457E-5,0
SAUDISAT 1C (SO-50),2002-058C,2026-07-19T22:14:27.684384,14.83103564,.00743805,64.5521,27.6843,256.4147,102.8667,0,U,27607,999,26931,.6450776E-4,.394E-5,0
CORIOLIS,2003-001A,2026-07-20T05:53:05.113248,14.19952733,.00150983,98.7137,207.6264,115.7333,244.5404,0,U,27640,999,21891,.40097735E-4,.42E-6,0
CUTE-1 (CO-55),2003-031E,2026-07-20T06:20:31.895520,14.24353468,.00108679,98.6745,209.4081,89.7034,270.5390,0,U,27844,999,19638,.81134159E-4,.144E-5,0
CUBESAT XI-IV (CO-57),2003-031J,2026-07-19T23:43:01.909920,14.23636063,.00106776,98.6776,208.8216,106.9175,253.3176,0,U,27848,999,19604,.63799349E-4,.102E-5,0
MOZHAETS 4 (RS22),2003-042A,2026-07-20T07:17:15.682272,14.73517665,.00116566,98.3482,26.6000,157.2918,15.7654,0,U,27939,999,22042,.25930506E-4,.115E-5,0
